LANDSAT 9               
1 49260U 21088A   24292.15840250  .00002065  00000+0  46841-3 0  9992
2 49260  98.2201   0.2112 0001237  76.9616 283.1721 14.57096580162591
